[{"OBJECT_NAME":"PROTOMETHEE","OBJECT_ID":"2023-174BT","EPOCH":"2026-03-09T23:28:08.029344","MEAN_MOTION":15.30202663,"ECCENTRICITY":0.00088339,"INCLINATION":97.3826,"RA_OF_ASC_NODE":147.9552,"ARG_OF_PERICENTER":148.5993,"MEAN_ANOMALY":211.5776,"EPHEMERIS_TYPE":0,"CLASSIFICATION_TYPE":"U","NORAD_CAT_ID":58321,"ELEMENT_SET_NO":999,"REV_AT_EPOCH":12979,"BSTAR":0.00015715731,"MEAN_MOTION_DOT":4.52e-5,"MEAN_MOTION_DDOT":0},{"OBJECT_NAME":"STARLINK-36089","OBJECT_ID":"2025-286Y","EPOCH":"2026-03-09T01:04:26.909760","MEAN_MOTION":15.30209605,"ECCENTRICITY":0.00012127,"INCLINATION":53.1601,"RA_OF_ASC_NODE":1.7547,"ARG_OF_PERICENTER":92.3094,"MEAN_ANOMALY":267.8046,"EPHEMERIS_TYPE":0,"CLASSIFICATION_TYPE":"U","NORAD_CAT_ID":66947,"ELEMENT_SET_NO":999,"REV_AT_EPOCH":1531,"BSTAR":0.00073641481,"MEAN_MOTION_DOT":0.00021521,"MEAN_MOTION_DDOT":0}]
